{
  "type": "FeatureCollection",
  "features": [
    {
      "type": "Feature",
      "properties": {
        "norad_id": 34492,
        "name": "IRIDIUM 33 DEB",
        "group": "iridium-33-debris",
        "lat": -25.963456697422814,
        "lon": 158.11385424678042,
        "alt_km": 717.2752507330906,
        "timestamp": "2025-12-08T08:59:01.151536+00:00",
        "meta_object_name": "IRIDIUM 33 DEB",
        "meta_object_id": "1997-051GH",
        "meta_epoch": "2025-12-07T23:50:44.784960",
        "meta_mean_motion": 14.25534668,
        "meta_eccentricity": 0.0189621,
        "meta_inclination": 86.4724,
        "meta_ra_of_asc_node": 336.5463,
        "meta_arg_of_pericenter": 253.6464,
        "meta_mean_anomaly": 161.0806,
        "meta_ephemeris_type": 0,
        "meta_classification_type": "U",
        "meta_norad_cat_id": 34492,
        "meta_element_set_no": 999,
        "meta_rev_at_epoch": 84991,
        "meta_bstar": 0.0068533726,
        "meta_mean_motion_dot": 0.00019616,
        "meta_mean_motion_ddot": 0,
        "tle_line1": "1 34492U 97051GH  25341.99357390  .00019616  00000+0  68534-2 0  9994",
        "tle_line2": "2 34492  86.4724 336.5463 0189621 253.6464 161.0806 14.25534668849919"
      },
      "geometry": {
        "type": "Point",
        "coordinates": [
          158.11385424678042,
          -25.963456697422814
        ]
      }
    },
    {
      "type": "Feature",
      "properties": {
        "norad_id": 34497,
        "name": "IRIDIUM 33 DEB",
        "group": "iridium-33-debris",
        "lat": 58.02253814941399,
        "lon": 60.251211317160994,
        "alt_km": 769.8565358909473,
        "timestamp": "2025-12-08T08:59:01.151547+00:00",
        "meta_object_name": "IRIDIUM 33 DEB",
        "meta_object_id": "1997-051GN",
        "meta_epoch": "2025-12-07T04:14:57.003360",
        "meta_mean_motion": 14.27428897,
        "meta_eccentricity": 0.00793764,
        "meta_inclination": 86.2782,
        "meta_ra_of_asc_node": 54.778,
        "meta_arg_of_pericenter": 357.6873,
        "meta_mean_anomaly": 31.1496,
        "meta_ephemeris_type": 0,
        "meta_classification_type": "U",
        "meta_norad_cat_id": 34497,
        "meta_element_set_no": 999,
        "meta_rev_at_epoch": 86804,
        "meta_bstar": 0.0010122974,
        "meta_mean_motion_dot": 2.585e-05,
        "meta_mean_motion_ddot": 0,
        "tle_line1": "1 34497U 97051GN  25341.17704865  .00002585  00000+0  10123-2 0  9990",
        "tle_line2": "2 34497  86.2782  54.7780 0079376 357.6873  31.1496 14.27428897868046"
      },
      "geometry": {
        "type": "Point",
        "coordinates": [
          60.251211317160994,
          58.02253814941399
        ]
      }
    },
    {
      "type": "Feature",
      "properties": {
        "norad_id": 34508,
        "name": "IRIDIUM 33 DEB",
        "group": "iridium-33-debris",
        "lat": 43.00873209987287,
        "lon": 107.88795933548246,
        "alt_km": 798.2636060822224,
        "timestamp": "2025-12-08T08:59:01.151557+00:00",
        "meta_object_name": "IRIDIUM 33 DEB",
        "meta_object_id": "1997-051GZ",
        "meta_epoch": "2025-12-07T19:25:27.527232",
        "meta_mean_motion": 14.38361799,
        "meta_eccentricity": 0.00657554,
        "meta_inclination": 86.3707,
        "meta_ra_of_asc_node": 104.7333,
        "meta_arg_of_pericenter": 188.9848,
        "meta_mean_anomaly": 171.0179,
        "meta_ephemeris_type": 0,
        "meta_classification_type": "U",
        "meta_norad_cat_id": 34508,
        "meta_element_set_no": 999,
        "meta_rev_at_epoch": 87238,
        "meta_bstar": 0.0028505421,
        "meta_mean_motion_dot": 8.927e-05,
        "meta_mean_motion_ddot": 0,
        "tle_line1": "1 34508U 97051GZ  25341.80934638  .00008927  00000+0  28505-2 0  9995",
        "tle_line2": "2 34508  86.3707 104.7333 0065755 188.9848 171.0179 14.38361799872383"
      },
      "geometry": {
        "type": "Point",
        "coordinates": [
          107.88795933548246,
          43.00873209987287
        ]
      }
    },
    {
      "type": "Feature",
      "properties": {
        "norad_id": 34521,
        "name": "IRIDIUM 33 DEB",
        "group": "iridium-33-debris",
        "lat": -10.129933661883612,
        "lon": -146.8817869669888,
        "alt_km": 686.4268469452154,
        "timestamp": "2025-12-08T08:59:01.151567+00:00",
        "meta_object_name": "IRIDIUM 33 DEB",
        "meta_object_id": "1997-051HN",
        "meta_epoch": "2025-12-07T14:03:52.998048",
        "meta_mean_motion": 14.63299269,
        "meta_eccentricity": 0.00011103,
        "meta_inclination": 86.38,
        "meta_ra_of_asc_node": 32.817,
        "meta_arg_of_pericenter": 253.2425,
        "meta_mean_anomaly": 106.8665,
        "meta_ephemeris_type": 0,
        "meta_classification_type": "U",
        "meta_norad_cat_id": 34521,
        "meta_element_set_no": 999,
        "meta_rev_at_epoch": 88397,
        "meta_bstar": 0.0015075836,
        "meta_mean_motion_dot": 7.799e-05,
        "meta_mean_motion_ddot": 0,
        "tle_line1": "1 34521U 97051HN  25341.58603007  .00007799  00000+0  15076-2 0  9993",
        "tle_line2": "2 34521  86.3800  32.8170 0001110 253.2425 106.8665 14.63299269883977"
      },
      "geometry": {
        "type": "Point",
        "coordinates": [
          -146.8817869669888,
          -10.129933661883612
        ]
      }
    },
    {
      "type": "Feature",
      "properties": {
        "norad_id": 34525,
        "name": "IRIDIUM 33 DEB",
        "group": "iridium-33-debris",
        "lat": -30.298268141984675,
        "lon": 46.583172293448165,
        "alt_km": 758.3345510246163,
        "timestamp": "2025-12-08T08:59:01.151577+00:00",
        "meta_object_name": "IRIDIUM 33 DEB",
        "meta_object_id": "1997-051HS",
        "meta_epoch": "2025-12-07T15:31:26.608800",
        "meta_mean_motion": 14.42887569,
        "meta_eccentricity": 0.00066123,
        "meta_inclination": 86.3731,
        "meta_ra_of_asc_node": 49.0175,
        "meta_arg_of_pericenter": 106.9263,
        "meta_mean_anomaly": 46.4385,
        "meta_ephemeris_type": 0,
        "meta_classification_type": "U",
        "meta_norad_cat_id": 34525,
        "meta_element_set_no": 999,
        "meta_rev_at_epoch": 88014,
        "meta_bstar": 0.00069229009,
        "meta_mean_motion_dot": 2.331e-05,
        "meta_mean_motion_ddot": 0,
        "tle_line1": "1 34525U 97051HS  25341.64683575  .00002331  00000+0  69229-3 0  9999",
        "tle_line2": "2 34525  86.3731  49.0175 0006612 106.9263  46.4385 14.42887569880142"
      },
      "geometry": {
        "type": "Point",
        "coordinates": [
          46.583172293448165,
          -30.298268141984675
        ]
      }
    },
    {
      "type": "Feature",
      "properties": {
        "norad_id": 34529,
        "name": "IRIDIUM 33 DEB",
        "group": "iridium-33-debris",
        "lat": -79.83838985546183,
        "lon": -121.95077755552435,
        "alt_km": 762.8318009525829,
        "timestamp": "2025-12-08T08:59:01.151588+00:00",
        "meta_object_name": "IRIDIUM 33 DEB",
        "meta_object_id": "1997-051HW",
        "meta_epoch": "2025-12-07T13:26:27.381696",
        "meta_mean_motion": 14.40609758,
        "meta_eccentricity": 0.00041639,
        "meta_inclination": 86.3644,
        "meta_ra_of_asc_node": 37.6196,
        "meta_arg_of_pericenter": 194.6749,
        "meta_mean_anomaly": 165.433,
        "meta_ephemeris_type": 0,
        "meta_classification_type": "U",
        "meta_norad_cat_id": 34529,
        "meta_element_set_no": 999,
        "meta_rev_at_epoch": 88067,
        "meta_bstar": 0.000220683,
        "meta_mean_motion_dot": 7.23e-06,
        "meta_mean_motion_ddot": 0,
        "tle_line1": "1 34529U 97051HW  25341.56003914  .00000723  00000+0  22068-3 0  9990",
        "tle_line2": "2 34529  86.3644  37.6196 0004163 194.6749 165.4330 14.40609758880677"
      },
      "geometry": {
        "type": "Point",
        "coordinates": [
          -121.95077755552435,
          -79.83838985546183
        ]
      }
    },
    {
      "type": "Feature",
      "properties": {
        "norad_id": 34538,
        "name": "IRIDIUM 33 DEB",
        "group": "iridium-33-debris",
        "lat": 65.9690882012294,
        "lon": 15.865116524348068,
        "alt_km": 740.7255434998997,
        "timestamp": "2025-12-08T08:59:01.151598+00:00",
        "meta_object_name": "IRIDIUM 33 DEB",
        "meta_object_id": "1997-051JF",
        "meta_epoch": "2025-12-07T06:38:08.723904",
        "meta_mean_motion": 14.42600183,
        "meta_eccentricity": 0.00334838,
        "meta_inclination": 86.2771,
        "meta_ra_of_asc_node": 7.9488,
        "meta_arg_of_pericenter": 346.4929,
        "meta_mean_anomaly": 141.5957,
        "meta_ephemeris_type": 0,
        "meta_classification_type": "U",
        "meta_norad_cat_id": 34538,
        "meta_element_set_no": 999,
        "meta_rev_at_epoch": 87677,
        "meta_bstar": 0.0014728578,
        "meta_mean_motion_dot": 4.942e-05,
        "meta_mean_motion_ddot": 0,
        "tle_line1": "1 34538U 97051JF  25341.27648986  .00004942  00000+0  14729-2 0  9993",
        "tle_line2": "2 34538  86.2771   7.9488 0033483 346.4929 141.5957 14.42600183876776"
      },
      "geometry": {
        "type": "Point",
        "coordinates": [
          15.865116524348068,
          65.9690882012294
        ]
      }
    }
  ]
}